COMMENT,ORIGINATOR,NORAD_CAT_ID,OBJECT_NAME,OBJECT_TYPE,CLASSIFICATION_TYPE,INTLDES,EPOCH,EPOCH_MICROSECONDS,MEAN_MOTION,ECCENTRICITY,INCLINATION,RA_OF_ASC_NODE,ARG_OF_PERICENTER,MEAN_ANOMALY,EPHEMERIS_TYPE,ELEMENT_SET_NO,REV_AT_EPOCH,BSTAR,MEAN_MOTION_DOT,MEAN_MOTION_DDOT,FILE,TLE_LINE0,TLE_LINE1,TLE_LINE2,OBJECT_ID,OBJECT_NUMBER,SEMIMAJOR_AXIS,PERIOD,APOGEE,PERIGEE,DECAYED,date
GENERATED VIA SPACETRACK.ORG API,18 SPCS,52181,SPACEBEE-131,PAYLOAD,U,22033AA,2023/3/26 18:59,982464,15.37771602,0.0006827,97.3515,168.9644,113.239,246.9574,0,999,5478,0.0016572,0.00061873,0,3871964,0 SPACEBEE-131,1 52181U 22033AA  23085.79108776  .00061873  00000-0  16572-2 0  9998,2 52181  97.3515 168.9644 0006827 113.2390 246.9574 15.37771602 54789,2022-033AA,52181,6830.837,93.642,457.366,448.039,1,
GENERATED VIA SPACETRACK.ORG API,18 SPCS,52181,SPACEBEE-131,PAYLOAD,U,22033AA,2023/3/27 4:21,361184,15.3782467,0.000674,97.3515,169.3553,112.3874,247.8085,0,999,5484,0.0016168,0.00060454,0,3872569,0 SPACEBEE-131,1 52181U 22033AA  23086.18150881  .00060454  00000-0  16168-2 0  9991,2 52181  97.3515 169.3553 0006740 112.3874 247.8085 15.37824670 54842,2022-033AA,52181,6830.68,93.639,457.149,447.941,1,
GENERATED VIA SPACETRACK.ORG API,18 SPCS,52181,SPACEBEE-131,PAYLOAD,U,22033AA,2023/3/27 18:24,146400,15.37890161,0.0006678,97.3514,169.9422,110.0297,250.1668,0,999,5493,0.0015569,0.00058318,0,3872915,0 SPACEBEE-131,1 52181U 22033AA  23086.76711975  .00058318  00000-0  15569-2 0  9992,2 52181  97.3514 169.9422 0006678 110.0297 250.1668 15.37890161 54938,2022-033AA,52181,6830.486,93.635,456.913,447.79,1,
GENERATED VIA SPACETRACK.ORG API,18 SPCS,52181,SPACEBEE-131,PAYLOAD,U,22033AA,2023/3/28 5:20,465312,15.37953297,0.0006684,97.3515,170.398,109.0547,251.1423,0,999,5498,0.0015799,0.00059309,0,3873236,0 SPACEBEE-131,1 52181U 22033AA  23087.22257483  .00059309  00000-0  15799-2 0  9999,2 52181  97.3515 170.3980 0006684 109.0547 251.1423 15.37953297 54982,2022-033AA,52181,6830.299,93.631,456.73,447.599,1,
GENERATED VIA SPACETRACK.ORG API,18 SPCS,52181,SPACEBEE-131,PAYLOAD,U,22033AA,2023/3/28 5:20,465312,15.37953297,0.0006684,97.3515,170.398,109.0547,251.1423,0,999,5500,0.0015799,0.00059309,0,3873565,0 SPACEBEE-131,1 52181U 22033AA  23087.22257483  .00059309  00000-0  15799-2 0  9999,2 52181  97.3515 170.3980 0006684 109.0547 251.1423 15.37953297 55006,2022-033AA,52181,6830.299,93.631,456.73,447.599,1,
GENERATED VIA SPACETRACK.ORG API,18 SPCS,52181,SPACEBEE-131,PAYLOAD,U,22033AA,2023/3/28 17:50,649760,15.38015979,0.0006618,97.3512,170.92,106.561,253.6362,0,999,5508,0.0016518,0.0006216,0,3873921,0 SPACEBEE-131,1 52181U 22033AA  23087.74307465  .00062160  00000-0  16518-2 0  9991,2 52181  97.3512 170.9200 0006618 106.5610 253.6362 15.38015979 55088,2022-033AA,52181,6830.114,93.627,456.499,447.459,1,
GENERATED VIA SPACETRACK.ORG API,18 SPCS,52181,SPACEBEE-131,PAYLOAD,U,22033AA,2023/3/29 4:45,663872,15.38085752,0.0006524,97.3512,171.3757,105.5419,254.6546,0,999,5513,0.0018383,0.00069408,0,3874219,0 SPACEBEE-131,1 52181U 22033AA  23088.19849148  .00069408  00000-0  18383-2 0  9994,2 52181  97.3512 171.3757 0006524 105.5419 254.6546 15.38085752 55139,2022-033AA,52181,6829.907,93.623,456.228,447.316,1,
GENERATED VIA SPACETRACK.ORG API,18 SPCS,52181,SPACEBEE-131,PAYLOAD,U,22033AA,2023/3/29 4:45,663872,15.38085752,0.0006524,97.3512,171.3757,105.5419,254.6546,0,999,5515,0.0018383,0.00069408,0,3874492,0 SPACEBEE-131,1 52181U 22033AA  23088.19849148  .00069408  00000-0  18383-2 0  9994,2 52181  97.3512 171.3757 0006524 105.5419 254.6546 15.38085752 55151,2022-033AA,52181,6829.907,93.623,456.228,447.316,1,
GENERATED VIA SPACETRACK.ORG API,18 SPCS,52181,SPACEBEE-131,PAYLOAD,U,22033AA,2023/3/29 18:48,638880,15.38166533,0.0006421,97.3512,171.9626,103.286,256.9101,0,999,5524,0.0018867,0.00071441,0,3874790,0 SPACEBEE-131,1 52181U 22033AA  23088.78400045  .00071441  00000-0  18867-2 0  9995,2 52181  97.3512 171.9626 0006421 103.2860 256.9101 15.38166533 55242,2022-033AA,52181,6829.668,93.618,455.918,447.148,1,
GENERATED VIA SPACETRACK.ORG API,18 SPCS,52181,SPACEBEE-131,PAYLOAD,U,22033AA,2023/3/30 11:59,612640,15.38268551,0.0006441,97.3513,172.6798,100.7076,259.4895,0,999,5533,0.0020522,0.0007804,0,3875390,0 SPACEBEE-131,1 52181U 22033AA  23089.49957885  .00078040  00000-0  20522-2 0  9996,2 52181  97.3513 172.6798 0006441 100.7076 259.4895 15.38268551 55335,2022-033AA,52181,6829.366,93.612,455.63,446.832,1,
GENERATED VIA SPACETRACK.ORG API,18 SPCS,52181,SPACEBEE-131,PAYLOAD,U,22033AA,2023/3/30 18:14,751808,15.38310777,0.0006397,97.3512,172.9405,99.8027,260.3941,0,999,5539,0.002158,0.00082224,0,3875726,0 SPACEBEE-131,1 52181U 22033AA  23089.75977722  .00082224  00000-0  21580-2 0  9991,2 52181  97.3512 172.9405 0006397  99.8027 260.3941 15.38310777 55393,2022-033AA,52181,6829.241,93.609,455.475,446.738,1,
GENERATED VIA SPACETRACK.ORG API,18 SPCS,52181,SPACEBEE-131,PAYLOAD,U,22033AA,2023/3/31 5:09,134208,15.38391316,0.0006355,97.3513,173.3965,98.8272,261.3693,0,999,5544,0.0021633,0.00082646,0,3876379,0 SPACEBEE-131,1 52181U 22033AA  23090.21510572  .00082646  00000-0  21633-2 0  9997,2 52181  97.3513 173.3965 0006355  98.8272 261.3693 15.38391316 55444,2022-033AA,52181,6829.003,93.604,455.208,446.528,1,
GENERATED VIA SPACETRACK.ORG API,18 SPCS,52181,SPACEBEE-131,PAYLOAD,U,22033AA,2023/4/1 4:34,86336,15.38529934,0.0006186,97.3514,174.3743,95.4977,264.6974,0,999,5559,0.0019273,0.00073866,0,3876921,0 SPACEBEE-131,1 52181U 22033AA  23091.19074174  .00073866  00000-0  19273-2 0  9999,2 52181  97.3514 174.3743 0006186  95.4977 264.6974 15.38529934 55590,2022-033AA,52181,6828.593,93.596,454.682,446.234,1,
GENERATED VIA SPACETRACK.ORG API,18 SPCS,52181,SPACEBEE-131,PAYLOAD,U,22033AA,2023/4/1 10:49,530176,15.38556246,0.0006103,97.3517,174.6355,93.8621,266.3322,0,999,5565,0.001696,0.00064971,0,3877270,0 SPACEBEE-131,1 52181U 22033AA  23091.45089734  .00064971  00000-0  16960-2 0  9993,2 52181  97.3517 174.6355 0006103  93.8621 266.3322 15.38556246 55651,2022-033AA,52181,6828.515,93.594,454.547,446.212,1,
GENERATED VIA SPACETRACK.ORG API,18 SPCS,52181,SPACEBEE-131,PAYLOAD,U,22033AA,2023/4/1 18:37,628224,15.38603678,0.0006121,97.3519,174.9617,92.923,267.2715,0,999,5568,0.0018371,0.00070543,0,3877493,0 SPACEBEE-131,1 52181U 22033AA  23091.77608366  .00070543  00000-0  18371-2 0  9996,2 52181  97.3519 174.9617 0006121  92.9230 267.2715 15.38603678 55684,2022-033AA,52181,6828.374,93.591,454.419,446.06,1,
GENERATED VIA SPACETRACK.ORG API,18 SPCS,52181,SPACEBEE-131,PAYLOAD,U,22033AA,2023/4/1 18:37,628224,15.38603678,0.0006121,97.3519,174.9617,92.923,267.2715,0,999,5570,0.0018371,0.00070543,0,3877516,0 SPACEBEE-131,1 52181U 22033AA  23091.77608366  .00070543  00000-0  18371-2 0  9996,2 52181  97.3519 174.9617 0006121  92.9230 267.2715 15.38603678 55707,2022-033AA,52181,6828.374,93.591,454.419,446.06,1,
GENERATED VIA SPACETRACK.ORG API,18 SPCS,52181,SPACEBEE-131,PAYLOAD,U,22033AA,2023/4/2 3:59,809376,15.38661741,0.0006111,97.3518,175.3527,92.3481,267.8464,0,999,5576,0.0018843,0.00072513,0,3878126,0 SPACEBEE-131,1 52181U 22033AA  23092.16629409  .00072513  00000-0  18843-2 0  9994,2 52181  97.3518 175.3527 0006111  92.3481 267.8464 15.38661741 55760,2022-033AA,52181,6828.203,93.588,454.24,445.895,1,
GENERATED VIA SPACETRACK.ORG API,18 SPCS,52181,SPACEBEE-131,PAYLOAD,U,22033AA,2023/4/2 18:02,961280,15.3873574,0.0006071,97.3515,175.9398,89.7804,270.4136,0,999,5585,0.001772,0.00068313,0,3878419,0 SPACEBEE-131,1 52181U 22033AA  23092.75158520  .00068313  00000-0  17720-2 0  9996,2 52181  97.3515 175.9398 0006071  89.7804 270.4136 15.38735740 55850,2022-033AA,52181,6827.984,93.583,453.994,445.704,1,
GENERATED VIA SPACETRACK.ORG API,18 SPCS,52181,SPACEBEE-131,PAYLOAD,U,22033AA,2023/4/3 4:57,802016,15.38795398,0.0006008,97.3515,176.3959,88.8909,271.3025,0,999,5590,0.0017683,0.00068301,0,3878705,0 SPACEBEE-131,1 52181U 22033AA  23093.20679169  .00068301  00000-0  17683-2 0  9999,2 52181  97.3515 176.3959 0006008  88.8909 271.3025 15.38795398 55902,2022-033AA,52181,6827.807,93.58,453.774,445.57,1,
GENERATED VIA SPACETRACK.ORG API,18 SPCS,52181,SPACEBEE-131,PAYLOAD,U,22033AA,2023/4/3 4:57,802016,15.38795398,0.0006008,97.3515,176.3959,88.8909,271.3025,0,999,5592,0.0017683,0.00068301,0,3879059,0 SPACEBEE-131,1 52181U 22033AA  23093.20679169  .00068301  00000-0  17683-2 0  9999,2 52181  97.3515 176.3959 0006008  88.8909 271.3025 15.38795398 55924,2022-033AA,52181,6827.807,93.58,453.774,445.57,1,
GENERATED VIA SPACETRACK.ORG API,18 SPCS,52181,SPACEBEE-131,PAYLOAD,U,22033AA,2023/4/4 2:48,36480,15.38911182,0.0005894,97.3515,177.3089,85.6445,274.5474,0,999,5604,0.0016304,0.00063163,0,3879926,0 SPACEBEE-131,1 52181U 22033AA  23094.11715320  .00063163  00000-0  16304-2 0  9990,2 52181  97.3515 177.3089 0005894  85.6445 274.5474 15.38911182 56049,2022-033AA,52181,6827.465,93.573,453.354,445.306,1,
GENERATED VIA SPACETRACK.ORG API,18 SPCS,52181,SPACEBEE-131,PAYLOAD,U,22033AA,2023/4/4 2:48,36480,15.38911182,0.0005894,97.3515,177.3089,85.6445,274.5474,0,999,5606,0.0016304,0.00063163,0,3879974,0 SPACEBEE-131,1 52181U 22033AA  23094.11715320  .00063163  00000-0  16304-2 0  9990,2 52181  97.3515 177.3089 0005894  85.6445 274.5474 15.38911182 56061,2022-033AA,52181,6827.465,93.573,453.354,445.306,1,
GENERATED VIA SPACETRACK.ORG API,18 SPCS,52181,SPACEBEE-131,PAYLOAD,U,22033AA,2023/4/5 5:20,728704,15.39056703,0.0005869,97.3516,178.4176,82.0604,278.1308,0,999,5621,0.0015936,0.00062019,0,3880566,0 SPACEBEE-131,1 52181U 22033AA  23095.22249686  .00062019  00000-0  15936-2 0  9999,2 52181  97.3516 178.4176 0005869  82.0604 278.1308 15.39056703 56214,2022-033AA,52181,6827.034,93.564,452.906,444.893,1,
